[{"OBJECT_NAME":"STARLINK-31006","OBJECT_ID":"2024-038B","EPOCH":"2026-03-09T02:53:16.014336","MEAN_MOTION":15.27569142,"ECCENTRICITY":4.529e-5,"INCLINATION":43.0055,"RA_OF_ASC_NODE":339.8224,"ARG_OF_PERICENTER":291.161,"MEAN_ANOMALY":68.9193,"EPHEMERIS_TYPE":0,"CLASSIFICATION_TYPE":"U","NORAD_CAT_ID":59024,"ELEMENT_SET_NO":999,"REV_AT_EPOCH":11525,"BSTAR":-4.3455196e-5,"MEAN_MOTION_DOT":-1.457e-5,"MEAN_MOTION_DDOT":0},{"OBJECT_NAME":"LYNK TOWER 6","OBJECT_ID":"2024-043AB","EPOCH":"2026-03-09T21:28:38.303328","MEAN_MOTION":15.29548678,"ECCENTRICITY":0.00097492,"INCLINATION":97.5426,"RA_OF_ASC_NODE":204.1954,"ARG_OF_PERICENTER":232.0253,"MEAN_ANOMALY":128.0107,"EPHEMERIS_TYPE":0,"CLASSIFICATION_TYPE":"U","NORAD_CAT_ID":59123,"ELEMENT_SET_NO":999,"REV_AT_EPOCH":11184,"BSTAR":0.00040142146,"MEAN_MOTION_DOT":0.0001144,"MEAN_MOTION_DDOT":0}]
